[{"id":1,"contactPersonId":30,"mobile":"408-169-3747","address":"7016 Eastlawn Avenue","city":"San Jose","state":"CA","zipcode":"95173"},
{"id":2,"contactPersonId":42,"mobile":"509-728-8068","address":"47903 Center Way","city":"Yakima","state":"WA","zipcode":"98907"},
{"id":3,"contactPersonId":17,"mobile":"989-305-9567","address":"73612 Melody Terrace","city":"Saginaw","state":"MI","zipcode":"48609"},
{"id":4,"contactPersonId":27,"mobile":"206-878-5073","address":"2 Carioca Parkway","city":"Seattle","state":"WA","zipcode":"98104"},
{"id":5,"contactPersonId":19,"mobile":"410-760-5483","address":"60406 Division Avenue","city":"Ridgely","state":"MD","zipcode":"21684"},
{"id":6,"contactPersonId":70,"mobile":"304-562-1615","address":"3 Eagan Park","city":"Charleston","state":"WV","zipcode":"25313"},
{"id":7,"contactPersonId":32,"mobile":"410-435-1376","address":"75 Butternut Park","city":"Baltimore","state":"MD","zipcode":"21275"},
{"id":8,"contactPersonId":99,"mobile":"608-127-4121","address":"90167 Dexter Point","city":"Madison","state":"WI","zipcode":"53716"},
{"id":9,"contactPersonId":88,"mobile":"516-613-0315","address":"87 Lillian Pass","city":"Great Neck","state":"NY","zipcode":"11024"},
{"id":10,"contactPersonId":17,"mobile":"302-784-9973","address":"2 Lukken Junction","city":"Newark","state":"DE","zipcode":"19725"},
{"id":11,"contactPersonId":37,"mobile":"813-245-9321","address":"92152 Continental Street","city":"Clearwater","state":"FL","zipcode":"33758"},
{"id":12,"contactPersonId":61,"mobile":"518-326-6271","address":"2273 Packers Avenue","city":"Albany","state":"NY","zipcode":"12255"},
{"id":13,"contactPersonId":2,"mobile":"213-939-4279","address":"514 Bluejay Place","city":"Los Angeles","state":"CA","zipcode":"90081"},
{"id":14,"contactPersonId":2,"mobile":"786-962-0060","address":"653 Elmside Park","city":"Miami","state":"FL","zipcode":"33142"},
{"id":15,"contactPersonId":96,"mobile":"260-160-1839","address":"4435 Fremont Junction","city":"Fort Wayne","state":"IN","zipcode":"46825"},
{"id":16,"contactPersonId":8,"mobile":"417-818-0233","address":"53909 5th Parkway","city":"Springfield","state":"MO","zipcode":"65810"},
{"id":17,"contactPersonId":42,"mobile":"480-363-3851","address":"3 Ruskin Crossing","city":"Tempe","state":"AZ","zipcode":"85284"},
{"id":18,"contactPersonId":96,"mobile":"703-507-0308","address":"7 Park Meadow Street","city":"Arlington","state":"VA","zipcode":"22205"},
{"id":19,"contactPersonId":58,"mobile":"916-433-3859","address":"1205 Hansons Point","city":"Sacramento","state":"CA","zipcode":"94245"},
{"id":20,"contactPersonId":26,"mobile":"701-361-9002","address":"6 Manitowish Alley","city":"Fargo","state":"ND","zipcode":"58122"},
{"id":21,"contactPersonId":7,"mobile":"480-306-9832","address":"68434 Esch Court","city":"Apache Junction","state":"AZ","zipcode":"85219"},
{"id":22,"contactPersonId":10,"mobile":"304-492-3130","address":"6138 Valley Edge Crossing","city":"Charleston","state":"WV","zipcode":"25321"},
{"id":23,"contactPersonId":40,"mobile":"513-267-5502","address":"876 Vera Hill","city":"Cincinnati","state":"OH","zipcode":"45264"},
{"id":24,"contactPersonId":24,"mobile":"513-644-5728","address":"4684 Oneill Trail","city":"Cincinnati","state":"OH","zipcode":"45203"},
{"id":25,"contactPersonId":10,"mobile":"602-391-4750","address":"3 Old Gate Alley","city":"Glendale","state":"AZ","zipcode":"85311"},
{"id":26,"contactPersonId":66,"mobile":"585-740-6633","address":"2 Aberg Lane","city":"Rochester","state":"NY","zipcode":"14683"},
{"id":27,"contactPersonId":72,"mobile":"314-641-3380","address":"348 Ilene Court","city":"Saint Louis","state":"MO","zipcode":"63104"},
{"id":28,"contactPersonId":55,"mobile":"239-145-3566","address":"828 Moland Terrace","city":"Fort Myers","state":"FL","zipcode":"33913"},
{"id":29,"contactPersonId":84,"mobile":"425-915-7545","address":"9 Towne Plaza","city":"Seattle","state":"WA","zipcode":"98109"},
{"id":30,"contactPersonId":25,"mobile":"808-585-2125","address":"35754 Village Green Junction","city":"Honolulu","state":"HI","zipcode":"96850"},
{"id":31,"contactPersonId":74,"mobile":"713-833-3862","address":"7841 Rutledge Lane","city":"Houston","state":"TX","zipcode":"77206"},
{"id":32,"contactPersonId":93,"mobile":"801-491-4671","address":"00033 Oxford Parkway","city":"Salt Lake City","state":"UT","zipcode":"84110"},
{"id":33,"contactPersonId":92,"mobile":"213-701-9191","address":"0 Golf Way","city":"Van Nuys","state":"CA","zipcode":"91499"},
{"id":34,"contactPersonId":46,"mobile":"865-503-2656","address":"9178 Talmadge Trail","city":"Knoxville","state":"TN","zipcode":"37914"},
{"id":35,"contactPersonId":76,"mobile":"808-755-6643","address":"7 Killdeer Park","city":"Honolulu","state":"HI","zipcode":"96850"},
{"id":36,"contactPersonId":83,"mobile":"863-795-7220","address":"19 Moose Street","city":"Winter Haven","state":"FL","zipcode":"33884"},
{"id":37,"contactPersonId":33,"mobile":"213-469-1013","address":"54828 New Castle Plaza","city":"Los Angeles","state":"CA","zipcode":"90081"},
{"id":38,"contactPersonId":81,"mobile":"918-931-1652","address":"92460 Superior Pass","city":"Tulsa","state":"OK","zipcode":"74126"},
{"id":39,"contactPersonId":84,"mobile":"410-220-3989","address":"1071 Everett Plaza","city":"Baltimore","state":"MD","zipcode":"21265"},
{"id":40,"contactPersonId":59,"mobile":"614-994-4694","address":"69332 Canary Way","city":"Columbus","state":"OH","zipcode":"43226"},
{"id":41,"contactPersonId":77,"mobile":"501-513-2965","address":"19 Harper Place","city":"Hot Springs National Park","state":"AR","zipcode":"71914"},
{"id":42,"contactPersonId":46,"mobile":"812-921-0907","address":"26357 Erie Pass","city":"Evansville","state":"IN","zipcode":"47705"},
{"id":43,"contactPersonId":53,"mobile":"301-110-5963","address":"1914 Granby Terrace","city":"Bethesda","state":"MD","zipcode":"20892"},
{"id":44,"contactPersonId":62,"mobile":"517-252-6915","address":"72 Roxbury Way","city":"Lansing","state":"MI","zipcode":"48956"},
{"id":45,"contactPersonId":43,"mobile":"443-694-0910","address":"139 Clemons Crossing","city":"Baltimore","state":"MD","zipcode":"21229"},
{"id":46,"contactPersonId":23,"mobile":"770-107-5182","address":"617 Esker Way","city":"Atlanta","state":"GA","zipcode":"30316"},
{"id":47,"contactPersonId":8,"mobile":"512-104-1519","address":"1843 5th Way","city":"Austin","state":"TX","zipcode":"78759"},
{"id":48,"contactPersonId":27,"mobile":"970-808-6319","address":"243 Lotheville Street","city":"Grand Junction","state":"CO","zipcode":"81505"},
{"id":49,"contactPersonId":33,"mobile":"210-242-4606","address":"33 Sutteridge Avenue","city":"San Antonio","state":"TX","zipcode":"78265"},
{"id":50,"contactPersonId":36,"mobile":"856-648-5673","address":"5339 Graceland Junction","city":"Camden","state":"NJ","zipcode":"08104"},
{"id":51,"contactPersonId":84,"mobile":"912-218-4591","address":"5594 Vernon Trail","city":"Savannah","state":"GA","zipcode":"31416"},
{"id":52,"contactPersonId":13,"mobile":"404-736-7648","address":"841 Westridge Parkway","city":"Atlanta","state":"GA","zipcode":"30306"},
{"id":53,"contactPersonId":28,"mobile":"209-285-2853","address":"15 Esker Trail","city":"Stockton","state":"CA","zipcode":"95210"},
{"id":54,"contactPersonId":18,"mobile":"202-192-3657","address":"605 Esch Park","city":"Washington","state":"DC","zipcode":"20425"},
{"id":55,"contactPersonId":11,"mobile":"515-904-3378","address":"84147 Sheridan Center","city":"Des Moines","state":"IA","zipcode":"50315"},
{"id":56,"contactPersonId":22,"mobile":"937-465-5525","address":"54 Melrose Center","city":"Dayton","state":"OH","zipcode":"45408"},
{"id":57,"contactPersonId":76,"mobile":"563-788-7841","address":"4311 Montana Crossing","city":"Davenport","state":"IA","zipcode":"52809"},
{"id":58,"contactPersonId":74,"mobile":"915-959-0735","address":"03391 Mifflin Terrace","city":"El Paso","state":"TX","zipcode":"88563"},
{"id":59,"contactPersonId":15,"mobile":"817-646-5651","address":"24 Fremont Pass","city":"Arlington","state":"TX","zipcode":"76016"},
{"id":60,"contactPersonId":87,"mobile":"919-979-4276","address":"60 Kropf Street","city":"Raleigh","state":"NC","zipcode":"27605"},
{"id":61,"contactPersonId":25,"mobile":"813-455-4036","address":"9 Killdeer Junction","city":"Tampa","state":"FL","zipcode":"33633"},
{"id":62,"contactPersonId":5,"mobile":"916-271-2608","address":"5262 Corben Terrace","city":"Sacramento","state":"CA","zipcode":"94237"},
{"id":63,"contactPersonId":79,"mobile":"805-580-7566","address":"4175 Granby Court","city":"Simi Valley","state":"CA","zipcode":"93094"},
{"id":64,"contactPersonId":31,"mobile":"225-835-6493","address":"960 Bunker Hill Crossing","city":"Baton Rouge","state":"LA","zipcode":"70826"},
{"id":65,"contactPersonId":81,"mobile":"910-332-8390","address":"635 Old Shore Alley","city":"Wilmington","state":"NC","zipcode":"28410"},
{"id":66,"contactPersonId":96,"mobile":"615-989-9564","address":"4 Dottie Terrace","city":"Nashville","state":"TN","zipcode":"37235"},
{"id":67,"contactPersonId":25,"mobile":"417-146-2816","address":"516 Dakota Court","city":"Springfield","state":"MO","zipcode":"65898"},
{"id":68,"contactPersonId":91,"mobile":"718-995-2722","address":"71 Acker Alley","city":"Brooklyn","state":"NY","zipcode":"11210"},
{"id":69,"contactPersonId":70,"mobile":"520-948-4228","address":"38 Del Mar Center","city":"Tucson","state":"AZ","zipcode":"85720"},
{"id":70,"contactPersonId":33,"mobile":"614-143-5211","address":"0 Dexter Way","city":"Columbus","state":"OH","zipcode":"43231"},
{"id":71,"contactPersonId":17,"mobile":"702-372-2977","address":"3 Northview Place","city":"Las Vegas","state":"NV","zipcode":"89135"},
{"id":72,"contactPersonId":50,"mobile":"412-400-6186","address":"37434 Nova Drive","city":"Pittsburgh","state":"PA","zipcode":"15255"},
{"id":73,"contactPersonId":32,"mobile":"217-742-3527","address":"45 Milwaukee Place","city":"Springfield","state":"IL","zipcode":"62756"},
{"id":74,"contactPersonId":14,"mobile":"503-747-6506","address":"75907 Westerfield Court","city":"Salem","state":"OR","zipcode":"97306"},
{"id":75,"contactPersonId":89,"mobile":"916-404-5018","address":"3 Mccormick Avenue","city":"Sacramento","state":"CA","zipcode":"94237"},
{"id":76,"contactPersonId":68,"mobile":"718-980-9500","address":"75468 Fairview Park","city":"Jamaica","state":"NY","zipcode":"11470"},
{"id":77,"contactPersonId":20,"mobile":"910-395-8271","address":"4 Hazelcrest Plaza","city":"Wilmington","state":"NC","zipcode":"28405"},
{"id":78,"contactPersonId":84,"mobile":"817-401-7852","address":"1545 Eastwood Way","city":"Fort Worth","state":"TX","zipcode":"76115"},
{"id":79,"contactPersonId":24,"mobile":"203-652-2880","address":"93 Huxley Parkway","city":"New Haven","state":"CT","zipcode":"06538"},
{"id":80,"contactPersonId":68,"mobile":"859-226-8423","address":"844 Caliangt Trail","city":"Lexington","state":"KY","zipcode":"40586"},
{"id":81,"contactPersonId":70,"mobile":"323-698-3296","address":"2183 Sage Way","city":"Long Beach","state":"CA","zipcode":"90805"},
{"id":82,"contactPersonId":79,"mobile":"330-974-8857","address":"18538 International Center","city":"Youngstown","state":"OH","zipcode":"44505"},
{"id":83,"contactPersonId":13,"mobile":"949-946-3303","address":"93473 American Trail","city":"Irvine","state":"CA","zipcode":"92612"},
{"id":84,"contactPersonId":21,"mobile":"352-472-1650","address":"4 Doe Crossing Junction","city":"Ocala","state":"FL","zipcode":"34474"},
{"id":85,"contactPersonId":88,"mobile":"318-797-4113","address":"23775 Dahle Avenue","city":"Shreveport","state":"LA","zipcode":"71166"},
{"id":86,"contactPersonId":35,"mobile":"703-205-6428","address":"6524 Southridge Avenue","city":"Reston","state":"VA","zipcode":"20195"},
{"id":87,"contactPersonId":36,"mobile":"608-704-7214","address":"558 Steensland Hill","city":"Madison","state":"WI","zipcode":"53710"},
{"id":88,"contactPersonId":63,"mobile":"404-536-5417","address":"4536 Esch Hill","city":"Atlanta","state":"GA","zipcode":"30375"},
{"id":89,"contactPersonId":61,"mobile":"860-922-6284","address":"29 Crest Line Place","city":"Hartford","state":"CT","zipcode":"06152"},
{"id":90,"contactPersonId":2,"mobile":"516-783-3017","address":"170 Helena Way","city":"Port Washington","state":"NY","zipcode":"11054"},
{"id":91,"contactPersonId":20,"mobile":"206-784-8270","address":"75126 Kingsford Center","city":"Seattle","state":"WA","zipcode":"98195"},
{"id":92,"contactPersonId":53,"mobile":"615-474-7576","address":"8039 Sugar Pass","city":"Nashville","state":"TN","zipcode":"37228"},
{"id":93,"contactPersonId":90,"mobile":"702-288-3411","address":"1709 Jenna Road","city":"Las Vegas","state":"NV","zipcode":"89155"},
{"id":94,"contactPersonId":13,"mobile":"213-951-8576","address":"96524 Nova Trail","city":"Los Angeles","state":"CA","zipcode":"90189"},
{"id":95,"contactPersonId":18,"mobile":"915-944-0401","address":"4700 Tennessee Plaza","city":"El Paso","state":"TX","zipcode":"88514"},
{"id":96,"contactPersonId":40,"mobile":"805-469-0462","address":"45 Division Road","city":"San Luis Obispo","state":"CA","zipcode":"93407"},
{"id":97,"contactPersonId":15,"mobile":"224-350-4436","address":"1672 Village Green Street","city":"Chicago","state":"IL","zipcode":"60604"},
{"id":98,"contactPersonId":94,"mobile":"218-502-0154","address":"50080 Helena Point","city":"Duluth","state":"MN","zipcode":"55811"},
{"id":99,"contactPersonId":8,"mobile":"501-776-0192","address":"6 Columbus Road","city":"Little Rock","state":"AR","zipcode":"72222"},
{"id":100,"contactPersonId":48,"mobile":"720-619-6354","address":"859 Moland Place","city":"Arvada","state":"CO","zipcode":"80005"}]